{"name":"Alterswohnung","type":"FeatureCollection"
,"features":[
{"type":"Feature","geometry":{"type":"Point","coordinates":[8.51384107178592,47.3258651164675]},"properties":{"Ort":"ZÃ¼rich","www":"http://www.wohnenab60.ch/","Adresse":"Klebestrasse 9","PLZ":"8041","Tel":"","Name":"Siedlung Mittelleimbach"}}
,{"type":"Feature","geometry":{"type":"Point","coordinates":[8.5333524048879,47.3315466056443]},"properties":{"Ort":"ZÃ¼rich","www":"http://www.wohnenab60.ch/","Adresse":"Erligatterweg 59 + 61","PLZ":"8038","Tel":"","Name":"Siedlung NeubÃ¼hl"}}
,{"type":"Feature","geometry":{"type":"Point","coordinates":[8.49173974038698,47.3958081671702]},"properties":{"Ort":"ZÃ¼rich","www":"http://www.wohnenab60.ch/","Adresse":"Meierwiesenstrasse 38","PLZ":"8064","Tel":"","Name":"Siedlung GrÃ¼nau"}}
,{"type":"Feature","geometry":{"type":"Point","coordinates":[8.5667742518828,47.3609269188865]},"properties":{"Ort":"ZÃ¼rich","www":"http://www.wohnenab60.ch/","Adresse":"Gattikerstrasse 5","PLZ":"8032","Tel":"","Name":"Siedlung Gattikerstrasse"}}
,{"type":"Feature","geometry":{"type":"Point","coordinates":[8.55915511742838,47.3769676670308]},"properties":{"Ort":"ZÃ¼rich","www":"http://www.wohnenab60.ch/","Adresse":"Gladbachstrasse 126+128","PLZ":"8044","Tel":"","Name":"Siedlung Gladbachstrasse"}}
,{"type":"Feature","geometry":{"type":"Point","coordinates":[8.55377418013924,47.3558720634902]},"properties":{"Ort":"ZÃ¼rich","www":"http://www.wohnenab60.ch/","Adresse":"Dufourstrasse 146","PLZ":"8008","Tel":"","Name":"Siedlung Riesbach"}}
,{"type":"Feature","geometry":{"type":"Point","coordinates":[8.48209415866995,47.3835545527639]},"properties":{"Ort":"ZÃ¼rich","www":"http://www.wohnenab60.ch/","Adresse":"Eulenweg 24","PLZ":"8048","Tel":"","Name":"Siedlung Buchlern"}}
,{"type":"Feature","geometry":{"type":"Point","coordinates":[8.49799317650411,47.3732184320576]},"properties":{"Ort":"ZÃ¼rich","www":"http://www.wohnenab60.ch/","Adresse":"Espenhofweg 31; 32; 34; 40; 42 / LanggrÃ¼tstrasse 77; 79; 81; 83; 89","PLZ":"8047","Tel":"","Name":"Siedlung Espenhof"}}
,{"type":"Feature","geometry":{"type":"Point","coordinates":[8.48372782559671,47.3844662636669]},"properties":{"Ort":"ZÃ¼rich","www":"http://www.wohnenab60.ch/","Adresse":"Schneebelistrasse 5","PLZ":"8048","Tel":"","Name":"Siedlung Feldblume"}}
,{"type":"Feature","geometry":{"type":"Point","coordinates":[8.48271179606655,47.3974912363033]},"properties":{"Ort":"ZÃ¼rich","www":"http://www.wohnenab60.ch/","Adresse":"BÃ¤ndlistrasse 68 + 70","PLZ":"8064","Tel":"","Name":"Siedlung WerdhÃ¶lzli"}}
,{"type":"Feature","geometry":{"type":"Point","coordinates":[8.48385378257876,47.4050547329351]},"properties":{"Ort":"ZÃ¼rich","www":"http://www.wohnenab60.ch/","Adresse":"Limmatstrasse 364; 366; 372; 380; 388","PLZ":"8049","Tel":"","Name":"Siedlung Frankental"}}
,{"type":"Feature","geometry":{"type":"Point","coordinates":[8.53499869193424,47.389091158418]},"properties":{"Ort":"ZÃ¼rich","www":"http://www.wohnenab60.ch/","Adresse":"Nordstrasse 97+101","PLZ":"8037","Tel":"","Name":"Siedlung Letten"}}
,{"type":"Feature","geometry":{"type":"Point","coordinates":[8.5165806383925,47.3952912367496]},"properties":{"Ort":"ZÃ¼rich","www":"http://www.wohnenab60.ch/","Adresse":"HÃ¶nggerstrasse 129","PLZ":"8037","Tel":"","Name":"Siedlung SydefÃ¤deli"}}
,{"type":"Feature","geometry":{"type":"Point","coordinates":[8.54293155565679,47.4177818464031]},"properties":{"Ort":"ZÃ¼rich","www":"http://www.wohnenab60.ch/","Adresse":"Neunbrunnenstrasse 6; 10; 14; 16 / Weisshau 8 / Felsenrainstrasse 35","PLZ":"8050","Tel":"","Name":"Siedlung Felsenrain"}}
,{"type":"Feature","geometry":{"type":"Point","coordinates":[8.51338943096446,47.4235833348828]},"properties":{"Ort":"ZÃ¼rich","www":"http://www.wohnenab60.ch/","Adresse":"Wolfswinkel 7","PLZ":"8046","Tel":"","Name":"Siedlung Unteraffoltern"}}
,{"type":"Feature","geometry":{"type":"Point","coordinates":[8.59269858051945,47.4002048388688]},"properties":{"Ort":"ZÃ¼rich","www":"http://www.wohnenab60.ch/","Adresse":"Helen Keller-Strasse 6","PLZ":"8051","Tel":"","Name":"Siedlung Helen Keller"}}
,{"type":"Feature","geometry":{"type":"Point","coordinates":[8.58652048033051,47.4055285188555]},"properties":{"Ort":"ZÃ¼rich","www":"http://www.wohnenab60.ch/","Adresse":"Hirzenbachstrasse 87","PLZ":"8051","Tel":"","Name":"Siedlung Hirzenbach"}}
,{"type":"Feature","geometry":{"type":"Point","coordinates":[8.59442390948601,47.4058365301135]},"properties":{"Ort":"ZÃ¼rich","www":"http://www.wohnenab60.ch/","Adresse":"Ueberlandstrasse 477+483","PLZ":"8051","Tel":"","Name":"Siedlung Ueberland"}}
,{"type":"Feature","geometry":{"type":"Point","coordinates":[8.56158682982517,47.4037496477776]},"properties":{"Ort":"ZÃ¼rich","www":"http://www.wohnenab60.ch/","Adresse":"Frohburgstrasse 340","PLZ":"8057","Tel":"","Name":"Siedlung Waldgarten"}}
,{"type":"Feature","geometry":{"type":"Point","coordinates":[8.51055863445896,47.419036338128]},"properties":{"Ort":"ZÃ¼rich","www":"http://www.wohnenab60.ch/","Adresse":"Riedenhaldenstrasse 233 + 235","PLZ":"8046","Tel":"","Name":"Siedlung Riedenhalden"}}
,{"type":"Feature","geometry":{"type":"Point","coordinates":[8.48285418532745,47.3878652734658]},"properties":{"Ort":"ZÃ¼rich","www":"http://www.wohnenab60.ch/","Adresse":"Feldblumenstrasse 9","PLZ":"8048","Tel":"","Name":"Siedlung Krone Altstetten"}}
,{"type":"Feature","geometry":{"type":"Point","coordinates":[8.58473296471936,47.3480224953043]},"properties":{"Ort":"Zollikon","www":"http://www.wohnenab60.ch/","Adresse":"Rebwiesstrasse 26 + 28","PLZ":"8702","Tel":"","Name":"Siedlung Rebwies"}}
,{"type":"Feature","geometry":{"type":"Point","coordinates":[8.48301706474823,47.4156423466244]},"properties":{"Ort":"ZÃ¼rich","www":"http://www.wohnenab60.ch/","Adresse":"Ecke Regensdorferstrasse / Im Stelzenacker","PLZ":"8049","Tel":"","Name":"Siedlung GrÃ¼nwald (ab ca. 2010)"}}
,{"type":"Feature","geometry":{"type":"Point","coordinates":[8.51373989492188,47.4160416471897]},"properties":{"Ort":"ZÃ¼rich","www":"http://www.wohnenab60.ch/","Adresse":"Wehntalerstr. 440, Neuwiesenstr. 9, Einfangstr.10, Riedenhaldenstr. 90","PLZ":"8046","Tel":"","Name":"Siedlung Frieden"}}
,{"type":"Feature","geometry":{"type":"Point","coordinates":[8.52383975033864,47.3790320484561]},"properties":{"Ort":"ZÃ¼rich","www":"http://www.wohnenab60.ch/feldstrasse","Adresse":"","PLZ":"8004","Tel":"","Name":"Siedlung Feldstrasse"}}
,{"type":"Feature","geometry":{"type":"Point","coordinates":[8.55353106409581,47.3556405357047]},"properties":{"Ort":"ZÃ¼rich","www":"http://www.wohnenab60.ch/dufourstrasse","Adresse":"Baurstrasse 11","PLZ":"8008","Tel":"","Name":"Siedlung Dufourstrasse"}}
,{"type":"Feature","geometry":{"type":"Point","coordinates":[8.55007701546567,47.3626631595767]},"properties":{"Ort":"ZÃ¼rich","www":"http://www.wohnenab60.ch/","Adresse":"Seefeldstrasse 50","PLZ":"8008","Tel":"","Name":"Siedlung Seefeldstrasse"}}
,{"type":"Feature","geometry":{"type":"Point","coordinates":[8.55004071979412,47.4224990147346]},"properties":{"Ort":"ZÃ¼rich","www":"http://www.wohnenab60.ch/","Adresse":"","PLZ":"8052","Tel":"","Name":"Siedlung Seebach"}}
,{"type":"Feature","geometry":{"type":"Point","coordinates":[8.5375990817164,47.4290943986761]},"properties":{"Ort":"ZÃ¼rich","www":"http://www.wohnenab60.ch/koeschenrueti_saw","Adresse":"","PLZ":"8052","Tel":"","Name":"Siedlung KÃ¶schenrÃ¼ti (ab zirka 2014)"}}
,{"type":"Feature","geometry":{"type":"Point","coordinates":[8.54451560773778,47.3696338522554]},"properties":{"Ort":"ZÃ¼rich","www":"http://www.wohnenab60.ch/","Adresse":"Oberdorfstrasse 36","PLZ":"8001","Tel":"","Name":"Siedlung Karl der Grosse"}}
,{"type":"Feature","geometry":{"type":"Point","coordinates":[8.51288257060625,47.3584097886842]},"properties":{"Ort":"ZÃ¼rich","www":"http://www.wohnenab60.ch/","Adresse":"Hegianwandweg 22 + 24","PLZ":"8045","Tel":"","Name":"Siedlung Friesenberg"}}
,{"type":"Feature","geometry":{"type":"Point","coordinates":[8.50862185629292,47.3809191316034]},"properties":{"Ort":"ZÃ¼rich","www":"http://www.wohnenab60.ch/","Adresse":"Norastrasse 30","PLZ":"8004","Tel":"","Name":"Siedlung Hardau"}}
,{"type":"Feature","geometry":{"type":"Point","coordinates":[8.53393103728307,47.3816173252792]},"properties":{"Ort":"ZÃ¼rich","www":"http://www.wohnenab60.ch/","Adresse":"Konradstrasse 65","PLZ":"8005","Tel":"","Name":"Siedlung Konradstrasse"}}
,{"type":"Feature","geometry":{"type":"Point","coordinates":[8.52918705723105,47.3873021786001]},"properties":{"Ort":"ZÃ¼rich","www":"http://www.wohnenab60.ch/","Adresse":"Fabrikstrasse 5","PLZ":"8005","Tel":"","Name":"Siedlung Sihlquai"}}
,{"type":"Feature","geometry":{"type":"Point","coordinates":[8.53780318372471,47.3927704941678]},"properties":{"Ort":"ZÃ¼rich","www":"http://www.wohnenab60.ch/","Adresse":"Hofwiesenstrasse 11","PLZ":"8057","Tel":"","Name":"Siedlung Schaffhauserplatz"}}
,{"type":"Feature","geometry":{"type":"Point","coordinates":[8.54687792944337,47.3928187013319]},"properties":{"Ort":"ZÃ¼rich","www":"http://www.wohnenab60.ch/","Adresse":"MÃ¶hrlistrasse 108+110 / Letzistrasse 23a+b","PLZ":"8006","Tel":"","Name":"Siedlung Irchel"}}
,{"type":"Feature","geometry":{"type":"Point","coordinates":[8.54398895570999,47.3881530520687]},"properties":{"Ort":"ZÃ¼rich","www":"http://www.wohnenab60.ch/","Adresse":"Scheuchzerstrasse 85","PLZ":"8006","Tel":"","Name":"Siedlung Scheuchzerstrasse"}}
]}
